[{"OBJECT_NAME":"STARLINK-3764","OBJECT_ID":"2022-041V","EPOCH":"2026-03-09T12:34:55.006464","MEAN_MOTION":15.08835355,"ECCENTRICITY":0.0001432,"INCLINATION":53.2165,"RA_OF_ASC_NODE":109.8637,"ARG_OF_PERICENTER":101.2795,"MEAN_ANOMALY":258.8358,"EPHEMERIS_TYPE":0,"CLASSIFICATION_TYPE":"U","NORAD_CAT_ID":52280,"ELEMENT_SET_NO":999,"REV_AT_EPOCH":21434,"BSTAR":-3.1397e-5,"MEAN_MOTION_DOT":-7.88e-6,"MEAN_MOTION_DDOT":0},{"OBJECT_NAME":"YUNYAO-1 47","OBJECT_ID":"2025-059E","EPOCH":"2026-03-09T22:46:15.708288","MEAN_MOTION":15.10508558,"ECCENTRICITY":0.00172664,"INCLINATION":97.6066,"RA_OF_ASC_NODE":250.9227,"ARG_OF_PERICENTER":135.6694,"MEAN_ANOMALY":224.5922,"EPHEMERIS_TYPE":0,"CLASSIFICATION_TYPE":"U","NORAD_CAT_ID":63348,"ELEMENT_SET_NO":999,"REV_AT_EPOCH":5331,"BSTAR":0.00029014568,"MEAN_MOTION_DOT":4.732e-5,"MEAN_MOTION_DDOT":0}]
